[{"OBJECT_NAME":"STARLINK-4326","OBJECT_ID":"2022-077AQ","EPOCH":"2026-03-09T22:13:55.060608","MEAN_MOTION":15.01262959,"ECCENTRICITY":6.4e-5,"INCLINATION":97.6047,"RA_OF_ASC_NODE":250.428,"ARG_OF_PERICENTER":114.0681,"MEAN_ANOMALY":246.061,"EPHEMERIS_TYPE":0,"CLASSIFICATION_TYPE":"U","NORAD_CAT_ID":53081,"ELEMENT_SET_NO":999,"REV_AT_EPOCH":20095,"BSTAR":4.35826e-5,"MEAN_MOTION_DOT":5.02e-6,"MEAN_MOTION_DDOT":0},{"OBJECT_NAME":"UNISAT-5","OBJECT_ID":"2013-066F","EPOCH":"2026-03-09T22:02:55.134816","MEAN_MOTION":15.04155626,"ECCENTRICITY":0.00317175,"INCLINATION":97.6976,"RA_OF_ASC_NODE":39.5171,"ARG_OF_PERICENTER":68.1555,"MEAN_ANOMALY":292.3039,"EPHEMERIS_TYPE":0,"CLASSIFICATION_TYPE":"U","NORAD_CAT_ID":39421,"ELEMENT_SET_NO":999,"REV_AT_EPOCH":66774,"BSTAR":0.0004680489,"MEAN_MOTION_DOT":6.504e-5,"MEAN_MOTION_DDOT":0}]
